[{"OBJECT_NAME":"STARLINK-2401","OBJECT_ID":"2021-018AH","EPOCH":"2026-03-09T22:10:26.161824","MEAN_MOTION":15.422267,"ECCENTRICITY":7.664e-5,"INCLINATION":53.0517,"RA_OF_ASC_NODE":251.5428,"ARG_OF_PERICENTER":114.0385,"MEAN_ANOMALY":246.0699,"EPHEMERIS_TYPE":0,"CLASSIFICATION_TYPE":"U","NORAD_CAT_ID":47818,"ELEMENT_SET_NO":999,"REV_AT_EPOCH":27661,"BSTAR":0.00076022564,"MEAN_MOTION_DOT":0.00032889,"MEAN_MOTION_DDOT":0},{"OBJECT_NAME":"CHIPSAT","OBJECT_ID":"2003-002B","EPOCH":"2026-03-09T14:27:30.663072","MEAN_MOTION":15.44632189,"ECCENTRICITY":0.000777,"INCLINATION":94.0324,"RA_OF_ASC_NODE":287.2761,"ARG_OF_PERICENTER":153.1766,"MEAN_ANOMALY":206.9893,"EPHEMERIS_TYPE":0,"CLASSIFICATION_TYPE":"U","NORAD_CAT_ID":27643,"ELEMENT_SET_NO":999,"REV_AT_EPOCH":27180,"BSTAR":0.00041911,"MEAN_MOTION_DOT":0.00019516,"MEAN_MOTION_DDOT":0}]
